ONEWEB-0053             
1 45157U 20008AC  21133.74892077  .00000602  00000-0  16895-2 0  9995
2 45157  87.8890  46.1304 0001658  64.8103 295.3196 13.10373588 65021
ONEWEB-0054             
1 45158U 20008AD  21133.78471497 -.00000598  00000-0 -17499-2 0  9996
2 45158  87.8891  46.1290 0001793  80.8579 279.2752 13.10377228 65149
ONEWEB-0056             
1 45159U 20008AE  21133.76603410  .00000874  00000-0  24683-2 0  9995
2 45159  87.8884  46.1254 0001976  70.9556 289.1785 13.10367120 65292
ONEWEB-0057             
1 45160U 20008AF  21133.77227118 -.00000463  00000-0 -13624-2 0  9994
2 45160  87.8888  46.0936 0001775  64.4485 295.6825 13.10366572 65196
ONEWEB-0058             
1 45161U 20008AG  21133.75980472  .00000192  00000-0  51343-3 0  9990
2 45161  87.8890  46.1154 0001524  74.9031 285.2265 13.10369838 65526
ONEWEB-0059             
1 45162U 20008AH  21133.75668693  .00000286  00000-0  78366-3 0  9997
2 45162  87.8887  46.1234 0001590  74.9267 285.2036 13.10371985 65416
ONEWEB-0062             
1 45163U 20008AJ  21133.78316174 -.00000647  00000-0 -18889-2 0  9991
2 45163  87.8890  46.1138 0002056  67.6496 292.4849 13.10376077 65290
ONEWEB-0065             
1 45164U 20008AK  21133.76136959  .00000043  00000-0  87123-4 0  9998
2 45164  87.8799  46.0860 0001848  73.8729 286.2601 13.10369829 64974
ONEWEB-0066             
1 45424U 20020A   21134.10501119 -.00000912  00000-0 -26100-2 0  9997
2 45424  87.8941  30.8799 0002174  87.3214 272.8162 13.11385623 58894
ONEWEB-0067             
1 45425U 20020B   21133.74964177 -.00000378  00000-0 -11034-2 0  9990
2 45425  87.8942  30.9590 0001539  75.2476 284.8823 13.11419805 58905
ONEWEB-0080             
1 45426U 20020C   21133.77580924  .00000521  00000-0  14339-2 0  9997
2 45426  87.8944  30.9352 0002209  80.7840 279.3538 13.11426873 58876
ONEWEB-0090             
1 45427U 20020D   21133.71480405  .00000364  00000-0  99255-3 0  9991
2 45427  87.8948  30.9679 0001809  79.2549 280.8783 13.11419110 58838
ONEWEB-0061             
1 45428U 20020E   21134.12822335 -.00085606  00000-0 -24460+0 0  9996
2 45428  87.8945  30.8518 0001743  83.4231 276.7095 13.11197074 58831
ONEWEB-0081             
1 45429U 20020F   21134.11149877 -.00000256  00000-0 -75864-3 0  9995
2 45429  87.8951  30.8204 0001022  83.1839 276.9405 13.11417608 58949
ONEWEB-0069             
1 45430U 20020G   21133.71694505  .00000216  00000-0  57322-3 0  9998
2 45430  87.8941  30.9613 0001758  73.4725 286.6596 13.11405499 58839
ONEWEB-0031             
1 45431U 20020H   21133.76710249  .00000332  00000-0  90240-3 0  9993
2 45431  87.8941  30.9477 0001876  69.5735 290.5594 13.11410034 58828
