[
{
"OBJECT_NAME": "ONEWEB-0053",
"OBJECT_ID": "2020-008AC",
"EPOCH": "2021-05-13T17:58:26.754528",
"MEAN_MOTION": 13.10373588,
"ECCENTRICITY": 0.0001658,
"INCLINATION": 87.889,
"RA_OF_ASC_NODE": 46.1304,
"ARG_OF_PERICENTER": 64.8103,
"MEAN_ANOMALY": 295.3196,
"EPHEMERIS_TYPE": 0,
"CLASSIFICATION_TYPE": "U",
"NORAD_CAT_ID": 45157,
"ELEMENT_SET_NO": 999,
"REV_AT_EPOCH": 6502,
"BSTAR": 0.0016895,
"MEAN_MOTION_DOT": 0.00000602,
"MEAN_MOTION_DDOT": 0
},
{
"OBJECT_NAME": "ONEWEB-0054",
"OBJECT_ID": "2020-008AD",
"EPOCH": "2021-05-13T18:49:59.373408",
"MEAN_MOTION": 13.10377228,
"ECCENTRICITY": 0.0001793,
"INCLINATION": 87.8891,
"RA_OF_ASC_NODE": 46.129,
"ARG_OF_PERICENTER": 80.8579,
"MEAN_ANOMALY": 279.2752,
"EPHEMERIS_TYPE": 0,
"CLASSIFICATION_TYPE": "U",
"NORAD_CAT_ID": 45158,
"ELEMENT_SET_NO": 999,
"REV_AT_EPOCH": 6514,
"BSTAR": -0.0017499,
"MEAN_MOTION_DOT": -0.00000598,
"MEAN_MOTION_DDOT": 0
},
{
"OBJECT_NAME": "ONEWEB-0056",
"OBJECT_ID": "2020-008AE",
"EPOCH": "2021-05-13T18:23:05.346240",
"MEAN_MOTION": 13.1036712,
"ECCENTRICITY": 0.0001976,
"INCLINATION": 87.8884,
"RA_OF_ASC_NODE": 46.1254,
"ARG_OF_PERICENTER": 70.9556,
"MEAN_ANOMALY": 289.1785,
"EPHEMERIS_TYPE": 0,
"CLASSIFICATION_TYPE": "U",
"NORAD_CAT_ID": 45159,
"ELEMENT_SET_NO": 999,
"REV_AT_EPOCH": 6529,
"BSTAR": 0.0024683,
"MEAN_MOTION_DOT": 0.00000874,
"MEAN_MOTION_DDOT": 0
},
{
"OBJECT_NAME": "ONEWEB-0057",
"OBJECT_ID": "2020-008AF",
"EPOCH": "2021-05-13T18:32:04.229952",
"MEAN_MOTION": 13.10366572,
"ECCENTRICITY": 0.0001775,
"INCLINATION": 87.8888,
"RA_OF_ASC_NODE": 46.0936,
"ARG_OF_PERICENTER": 64.4485,
"MEAN_ANOMALY": 295.6825,
"EPHEMERIS_TYPE": 0,
"CLASSIFICATION_TYPE": "U",
"NORAD_CAT_ID": 45160,
"ELEMENT_SET_NO": 999,
"REV_AT_EPOCH": 6519,
"BSTAR": -0.0013624,
"MEAN_MOTION_DOT": -0.00000463,
"MEAN_MOTION_DDOT": 0
},
{
"OBJECT_NAME": "ONEWEB-0058",
"OBJECT_ID": "2020-008AG",
"EPOCH": "2021-05-13T18:14:07.127808",
"MEAN_MOTION": 13.10369838,
"ECCENTRICITY": 0.0001524,
"INCLINATION": 87.889,
"RA_OF_ASC_NODE": 46.1154,
"ARG_OF_PERICENTER": 74.9031,
"MEAN_ANOMALY": 285.2265,
"EPHEMERIS_TYPE": 0,
"CLASSIFICATION_TYPE": "U",
"NORAD_CAT_ID": 45161,
"ELEMENT_SET_NO": 999,
"REV_AT_EPOCH": 6552,
"BSTAR": 0.00051343,
"MEAN_MOTION_DOT": 0.00000192,
"MEAN_MOTION_DDOT": 0
},
{
"OBJECT_NAME": "ONEWEB-0059",
"OBJECT_ID": "2020-008AH",
"EPOCH": "2021-05-13T18:09:37.750752",
"MEAN_MOTION": 13.10371985,
"ECCENTRICITY": 0.000159,
"INCLINATION": 87.8887,
"RA_OF_ASC_NODE": 46.1234,
"ARG_OF_PERICENTER": 74.9267,
"MEAN_ANOMALY": 285.2036,
"EPHEMERIS_TYPE": 0,
"CLASSIFICATION_TYPE": "U",
"NORAD_CAT_ID": 45162,
"ELEMENT_SET_NO": 999,
"REV_AT_EPOCH": 6541,
"BSTAR": 0.00078366,
"MEAN_MOTION_DOT": 0.00000286,
"MEAN_MOTION_DDOT": 0
},
{
"OBJECT_NAME": "ONEWEB-0062",
"OBJECT_ID": "2020-008AJ",
"EPOCH": "2021-05-13T18:47:45.174336",
"MEAN_MOTION": 13.10376077,
"ECCENTRICITY": 0.0002056,
"INCLINATION": 87.889,
"RA_OF_ASC_NODE": 46.1138,
"ARG_OF_PERICENTER": 67.6496,
"MEAN_ANOMALY": 292.4849,
"EPHEMERIS_TYPE": 0,
"CLASSIFICATION_TYPE": "U",
"NORAD_CAT_ID": 45163,
"ELEMENT_SET_NO": 999,
"REV_AT_EPOCH": 6529,
"BSTAR": -0.0018889,
"MEAN_MOTION_DOT": -0.00000647,
"MEAN_MOTION_DDOT": 0
},
{
"OBJECT_NAME": "ONEWEB-0065",
"OBJECT_ID": "2020-008AK",
"EPOCH": "2021-05-13T18:16:22.332576",
"MEAN_MOTION": 13.10369829,
"ECCENTRICITY": 0.0001848,
"INCLINATION": 87.8799,
"RA_OF_ASC_NODE": 46.086,
"ARG_OF_PERICENTER": 73.8729,
"MEAN_ANOMALY": 286.2601,
"EPHEMERIS_TYPE": 0,
"CLASSIFICATION_TYPE": "U",
"NORAD_CAT_ID": 45164,
"ELEMENT_SET_NO": 999,
"REV_AT_EPOCH": 6497,
"BSTAR": 0.000087123,
"MEAN_MOTION_DOT": 4.3e-7,
"MEAN_MOTION_DDOT": 0
},
{
"OBJECT_NAME": "ONEWEB-0066",
"OBJECT_ID": "2020-020A",
"EPOCH": "2021-05-14T02:31:12.966816",
"MEAN_MOTION": 13.11385623,
"ECCENTRICITY": 0.0002174,
"INCLINATION": 87.8941,
"RA_OF_ASC_NODE": 30.8799,
"ARG_OF_PERICENTER": 87.3214,
"MEAN_ANOMALY": 272.8162,
"EPHEMERIS_TYPE": 0,
"CLASSIFICATION_TYPE": "U",
"NORAD_CAT_ID": 45424,
"ELEMENT_SET_NO": 999,
"REV_AT_EPOCH": 5889,
"BSTAR": -0.00261,
"MEAN_MOTION_DOT": -0.00000912,
"MEAN_MOTION_DDOT": 0
},
{
"OBJECT_NAME": "ONEWEB-0067",
"OBJECT_ID": "2020-020B",
"EPOCH": "2021-05-13T17:59:29.048928",
"MEAN_MOTION": 13.11419805,
"ECCENTRICITY": 0.0001539,
"INCLINATION": 87.8942,
"RA_OF_ASC_NODE": 30.959,
"ARG_OF_PERICENTER": 75.2476,
"MEAN_ANOMALY": 284.8823,
"EPHEMERIS_TYPE": 0,
"CLASSIFICATION_TYPE": "U",
"NORAD_CAT_ID": 45425,
"ELEMENT_SET_NO": 999,
"REV_AT_EPOCH": 5890,
"BSTAR": -0.0011034,
"MEAN_MOTION_DOT": -0.00000378,
"MEAN_MOTION_DDOT": 0
},
{
"OBJECT_NAME": "ONEWEB-0080",
"OBJECT_ID": "2020-020C",
"EPOCH": "2021-05-13T18:37:09.918336",
"MEAN_MOTION": 13.11426873,
"ECCENTRICITY": 0.0002209,
"INCLINATION": 87.8944,
"RA_OF_ASC_NODE": 30.9352,
"ARG_OF_PERICENTER": 80.784,
"MEAN_ANOMALY": 279.3538,
"EPHEMERIS_TYPE": 0,
"CLASSIFICATION_TYPE": "U",
"NORAD_CAT_ID": 45426,
"ELEMENT_SET_NO": 999,
"REV_AT_EPOCH": 5887,
"BSTAR": 0.0014339,
"MEAN_MOTION_DOT": 0.00000521,
"MEAN_MOTION_DDOT": 0
},
{
"OBJECT_NAME": "ONEWEB-0090",
"OBJECT_ID": "2020-020D",
"EPOCH": "2021-05-13T17:09:19.069920",
"MEAN_MOTION": 13.1141911,
"ECCENTRICITY": 0.0001809,
"INCLINATION": 87.8948,
"RA_OF_ASC_NODE": 30.9679,
"ARG_OF_PERICENTER": 79.2549,
"MEAN_ANOMALY": 280.8783,
"EPHEMERIS_TYPE": 0,
"CLASSIFICATION_TYPE": "U",
"NORAD_CAT_ID": 45427,
"ELEMENT_SET_NO": 999,
"REV_AT_EPOCH": 5883,
"BSTAR": 0.00099255,
"MEAN_MOTION_DOT": 0.00000364,
"MEAN_MOTION_DDOT": 0
},
{
"OBJECT_NAME": "ONEWEB-0061",
"OBJECT_ID": "2020-020E",
"EPOCH": "2021-05-14T03:04:38.497440",
"MEAN_MOTION": 13.11197074,
"ECCENTRICITY": 0.0001743,
"INCLINATION": 87.8945,
"RA_OF_ASC_NODE": 30.8518,
"ARG_OF_PERICENTER": 83.4231,
"MEAN_ANOMALY": 276.7095,
"EPHEMERIS_TYPE": 0,
"CLASSIFICATION_TYPE": "U",
"NORAD_CAT_ID": 45428,
"ELEMENT_SET_NO": 999,
"REV_AT_EPOCH": 5883,
"BSTAR": -0.2446,
"MEAN_MOTION_DOT": -0.00085606,
"MEAN_MOTION_DDOT": 0
},
{
"OBJECT_NAME": "ONEWEB-0081",
"OBJECT_ID": "2020-020F",
"EPOCH": "2021-05-14T02:40:33.493728",
"MEAN_MOTION": 13.11417608,
"ECCENTRICITY": 0.0001022,
"INCLINATION": 87.8951,
"RA_OF_ASC_NODE": 30.8204,
"ARG_OF_PERICENTER": 83.1839,
"MEAN_ANOMALY": 276.9405,
"EPHEMERIS_TYPE": 0,
"CLASSIFICATION_TYPE": "U",
"NORAD_CAT_ID": 45429,
"ELEMENT_SET_NO": 999,
"REV_AT_EPOCH": 5894,
"BSTAR": -0.00075864,
"MEAN_MOTION_DOT": -0.00000256,
"MEAN_MOTION_DDOT": 0
},
{
"OBJECT_NAME": "ONEWEB-0069",
"OBJECT_ID": "2020-020G",
"EPOCH": "2021-05-13T17:12:24.052320",
"MEAN_MOTION": 13.11405499,
"ECCENTRICITY": 0.0001758,
"INCLINATION": 87.8941,
"RA_OF_ASC_NODE": 30.9613,
"ARG_OF_PERICENTER": 73.4725,
"MEAN_ANOMALY": 286.6596,
"EPHEMERIS_TYPE": 0,
"CLASSIFICATION_TYPE": "U",
"NORAD_CAT_ID": 45430,
"ELEMENT_SET_NO": 999,
"REV_AT_EPOCH": 5883,
"BSTAR": 0.00057322,
"MEAN_MOTION_DOT": 0.00000216,
"MEAN_MOTION_DDOT": 0
},
{
"OBJECT_NAME": "ONEWEB-0031",
"OBJECT_ID": "2020-020H",
"EPOCH": "2021-05-13T18:24:37.655136",
"MEAN_MOTION": 13.11410034,
"ECCENTRICITY": 0.0001876,
"INCLINATION": 87.8941,
"RA_OF_ASC_NODE": 30.9477,
"ARG_OF_PERICENTER": 69.5735,
"MEAN_ANOMALY": 290.5594,
"EPHEMERIS_TYPE": 0,
"CLASSIFICATION_TYPE": "U",
"NORAD_CAT_ID": 45431,
"ELEMENT_SET_NO": 999,
"REV_AT_EPOCH": 5882,
"BSTAR": 0.0009024,
"MEAN_MOTION_DOT": 0.00000332,
"MEAN_MOTION_DDOT": 0
}
]